NORAD_CAT_ID,OBJECT_NAME,OBJECT_TYPE,EPOCH,MEAN_MOTION,ECCENTRICITY,INCLINATION,RA_OF_ASC_NODE,ARG_OF_PERICENTER,MEAN_ANOMALY,BSTAR,MEAN_MOTION_DOT,MEAN_MOTION_DDOT,TLE_LINE0,TLE_LINE1,TLE_LINE2,SEMIMAJOR_AXIS,PERIOD,APOGEE,PERIGEE,DECAYED
53136.0,STARLINK-4152,PAYLOAD,2022-08-08 14:00:01,15.73283319,0.0002365,53.2175,298.0124,21.2833,138.0577,-0.00029085,-0.00041392,0.0,0 STARLINK-4152,1 53136U 22083E   22220.58335648 -.00041392  00000-0 -29085-3 0  9991,2 53136  53.2175 298.0124 0002365  21.2833 138.0577 15.73283319  1301,6727.658,91.528,351.11400000000015,347.932,0.0
53136.0,STARLINK-4152,PAYLOAD,2022-08-08 20:00:01,15.73368745,0.0002305,53.2168,296.7722,24.9802,111.1214,-0.0021160999999999,-0.00289756,0.0,0 STARLINK-4152,1 53136U 22083E   22220.83335648 -.00289756  00000-0 -21161-2 0  9993,2 53136  53.2168 296.7722 0002305  24.9802 111.1214 15.73368745  4155,6727.4140000000025,91.523,350.83,347.728,0.0
53136.0,STARLINK-4152,PAYLOAD,2022-08-08 22:00:00,15.73528273,0.0001935,53.217,296.3587,21.9641,226.2964,-0.0058915,-0.00766893,0.0,0 STARLINK-4152,1 53136U 22083E   22220.91667824 -.00766893  00000-0 -58915-2 0  9995,2 53136  53.2170 296.3587 0001935  21.9641 226.2964 15.73528273  1307,6726.959,91.514,350.126,347.523,0.0
53136.0,STARLINK-4152,PAYLOAD,2022-08-09 04:00:00,15.72922598,0.0002154,53.217,295.1167,26.6123,198.4954,-0.0028818,-0.00382702,0.0,0 STARLINK-4152,1 53136U 22083E   22221.16667824 -.00382702  00000-0 -28818-2 0  9995,2 53136  53.2170 295.1167 0002154  26.6123 198.4954 15.72922598  4207,6728.686,91.549,352.001,349.102,0.0
53136.0,STARLINK-4152,PAYLOAD,2022-08-09 12:00:00,15.72897143,0.0002153,53.2174,293.4677,17.7159,295.7874,-0.0090105,-0.01116345,0.0,0 STARLINK-4152,1 53136U 22083E   22221.50001157 -.01116345  00000-0 -90105-2 0  9991,2 53136  53.2174 293.4677 0002153  17.7159 295.7874 15.72897143  4251,6728.759,91.551,352.07199999999995,349.175,0.0
53136.0,STARLINK-4152,PAYLOAD,2022-08-09 14:00:01,15.72690949,0.0002319,53.2175,293.0553,17.8774,47.7356,-0.0090198,-0.01108607,0.0,0 STARLINK-4152,1 53136U 22083E   22221.58334491 -.01108607  00000-0 -90198-2 0  9993,2 53136  53.2175 293.0553 0002319  17.8774  47.7356 15.72690949  1307,6729.347,91.563,352.772,349.651,0.0
53136.0,STARLINK-4152,PAYLOAD,2022-08-09 22:00:00,15.71889253,0.0002463999999999,53.2174,291.4032,17.5502,135.8902,-0.0093505,-0.01110283,0.0,0 STARLINK-4152,1 53136U 22083E   22221.91667824 -.01110283  00000-0 -93505-2 0  9997,2 53136  53.2174 291.4032 0002464  17.5502 135.8902 15.71889253  1300,6731.635,91.61,355.158,351.841,0.0
53136.0,STARLINK-4152,PAYLOAD,2022-08-10 04:00:00,15.71285441,0.0002484999999999,53.2174,290.1658,17.2829,111.3952,-0.0095619,-0.01106942,0.0,0 STARLINK-4152,1 53136U 22083E   22222.16667824 -.01106942  00000-0 -95619-2 0  9990,2 53136  53.2174 290.1658 0002485  17.2829 111.3952 15.71285441  4364,6733.359,91.645,356.897,353.551,0.0
53136.0,STARLINK-4152,PAYLOAD,2022-08-10 14:00:01,15.70275105,0.0001607,53.2176,288.1098,329.0728,357.1284,-0.0098655,-0.01095228,0.0,0 STARLINK-4152,1 53136U 22083E   22222.58334491 -.01095228  00000-0 -98655-2 0  9994,2 53136  53.2176 288.1098 0001607 329.0728 357.1284 15.70275105  1302,6736.246999999999,91.704,359.195,357.03,0.0
53136.0,STARLINK-4152,PAYLOAD,2022-08-10 20:00:01,15.69678963,0.0001361999999999,53.2174,286.8751,12.4849,287.5047,-0.010221,-0.01105329,0.0,0 STARLINK-4152,1 53136U 22083E   22222.83334491 -.01105329  00000-0 -10221-1 0  9998,2 53136  53.2174 286.8751 0001362  12.4849 287.5047 15.69678963  4466,6737.953,91.739,360.735,358.9,0.0
53136.0,STARLINK-4152,PAYLOAD,2022-08-10 22:00:00,15.69479905,0.0001591,53.2176,286.4634,20.2596,30.8725,-0.010333,-0.01107963,0.0,0 STARLINK-4152,1 53136U 22083E   22222.91667824 -.01107963  00000-0 -10333-1 0  9996,2 53136  53.2176 286.4634 0001591  20.2596  30.8725 15.69479905  1301,6738.522,91.75,361.459,359.315,0.0
53136.0,STARLINK-4152,PAYLOAD,2022-08-11 14:00:01,15.67870865,0.0001383,53.2176,283.1819,55.3217,162.7804,-0.0109769999999999,-0.0110161,0.0,0 STARLINK-4152,1 53136U 22083E   22223.58334491 -.01101610  00000-0 -10977-1 0  9998,2 53136  53.2176 283.1819 0001383  55.3217 162.7804 15.67870865  1309,6743.132,91.844,365.929,364.064,0.0
53136.0,STARLINK-4152,PAYLOAD,2022-08-11 20:00:01,15.67272948,0.0001361,53.2173,281.9513,55.484,134.2364,-0.011332,-0.01126781,0.0,0 STARLINK-4152,1 53136U 22083E   22223.83334491 -.01126781  00000-0 -11332-1 0  9998,2 53136  53.2173 281.9513 0001361  55.4840 134.2364 15.67272948  4623,6744.847,91.879,367.63,365.794,0.0
53136.0,STARLINK-4152,PAYLOAD,2022-08-12 14:00:01,15.65460721,0.0001289,53.2174,278.2717,53.7148,47.6069,-0.012074,-0.01116351,0.0,0 STARLINK-4152,1 53136U 22083E   22224.58334491 -.01116351  00000-0 -12074-1 0  9997,2 53136  53.2174 278.2717 0001289  53.7148  47.6069 15.65460721  4748,6750.051,91.986,372.786,371.046,0.0
53136.0,STARLINK-4152,PAYLOAD,2022-08-12 22:00:01,15.6466043,0.000147,53.2176,276.6368,46.6687,133.8619,-0.012516,-0.01120271,0.0,0 STARLINK-4152,1 53136U 22083E   22224.91668981 -.01120271  00000-0 -12516-1 0  9995,2 53136  53.2176 276.6368 0001470  46.6687 133.8619 15.64660430  1301,6752.353,92.033,375.21,373.225,0.0
53136.0,STARLINK-4152,PAYLOAD,2022-08-13 04:00:00,15.64057817,0.0001571999999999,53.2175,275.4136,43.3044,105.8851,-0.012803,-0.01118885,0.0,0 STARLINK-4152,1 53136U 22083E   22225.16667824 -.01118885  00000-0 -12803-1 0  9995,2 53136  53.2175 275.4136 0001572  43.3044 105.8851 15.64057817  4831,6754.087,92.068,377.014,374.89,0.0
53136.0,STARLINK-4152,PAYLOAD,2022-08-13 14:00:01,15.63054442,0.0001195,53.2174,273.3789,52.7225,283.1339,-0.013326,-0.01118989,0.0,0 STARLINK-4152,1 53136U 22083E   22225.58334491 -.01118989  00000-0 -13326-1 0  9998,2 53136  53.2174 273.3789 0001195  52.7225 283.1339 15.63054442  1307,6756.977,92.127,379.649,378.035,0.0
53136.0,STARLINK-4152,PAYLOAD,2022-08-13 22:00:00,15.62251412,0.0001186,53.2175,271.7499,51.927,0.1799,-0.013757,-0.01119199,0.0,0 STARLINK-4152,1 53136U 22083E   22225.91667824 -.01119199  00000-0 -13757-1 0  9996,2 53136  53.2175 271.7499 0001186  51.9270   0.1799 15.62251412  1301,6759.292,92.175,381.959,380.356,0.0
53136.0,STARLINK-4152,PAYLOAD,2022-08-14 12:00:00,15.60846919,0.0001683,53.2174,268.9093,35.8923,57.327,-0.014531,-0.01119296,0.0,0 STARLINK-4152,1 53136U 22083E   22226.50001157 -.01119296  00000-0 -14531-1 0  9992,2 53136  53.2174 268.9093 0001683  35.8923  57.3270 15.60846919  5049,6763.346,92.258,386.35,384.073,0.0
53136.0,STARLINK-4152,PAYLOAD,2022-08-14 14:00:01,15.60642174,0.0001401,53.2172,268.5037,54.655,147.055,-0.014547,-0.0111227999999999,0.0,0 STARLINK-4152,1 53136U 22083E   22226.58334491 -.01112280  00000-0 -14547-1 0  9993,2 53136  53.2172 268.5037 0001401  54.6550 147.0550 15.60642174  1304,6763.938,92.27,386.751,384.855,0.0
53136.0,STARLINK-4152,PAYLOAD,2022-08-14 22:00:00,15.59842643,0.0001354,53.2174,266.8806,47.4967,227.5679,-0.01509,-0.01118112,0.0,0 STARLINK-4152,1 53136U 22083E   22226.91667824 -.01118112  00000-0 -15090-1 0  9993,2 53136  53.2174 266.8806 0001354  47.4967 227.5679 15.59842643  1307,6766.249,92.317,389.03,387.198,0.0
53136.0,STARLINK-4152,PAYLOAD,2022-08-15 04:00:00,15.59240671,0.0001520999999999,53.2174,265.6662,45.3584,194.0884,-0.015433,-0.01117525,0.0,0 STARLINK-4152,1 53136U 22083E   22227.16667824 -.01117525  00000-0 -15433-1 0  9999,2 53136  53.2174 265.6662 0001521  45.3584 194.0884 15.59240671  5147,6767.99,92.353,390.885,388.826,0.0
53136.0,STARLINK-4152,PAYLOAD,2022-08-15 14:00:01,15.58236286,0.0001305,53.2172,263.6459,46.9163,11.9617,-0.016012,-0.01115956,0.0,0 STARLINK-4152,1 53136U 22083E   22227.58334491 -.01115956  00000-0 -16012-1 0  9996,2 53136  53.2172 263.6459 0001305  46.9163  11.9617 15.58236286  1308,6770.898,92.412,393.647,391.88,0.0
53136.0,STARLINK-4152,PAYLOAD,2022-08-15 20:00:01,15.57635867,0.0001383,53.2175,262.4326,39.4867,342.3275,-0.01644,-0.0111965,0.0,0 STARLINK-4152,1 53136U 22083E   22227.83334491 -.01119650  00000-0 -16440-1 0  9994,2 53136  53.2175 262.4326 0001383  39.4867 342.3275 15.57635867  5240,6772.638000000001,92.448,395.44,393.567,0.0
53136.0,STARLINK-4152,PAYLOAD,2022-08-15 22:00:00,15.57432443,0.0001521999999999,53.2174,262.0286,42.3757,86.9641,-0.016487,-0.01114803,0.0,0 STARLINK-4152,1 53136U 22083E   22227.91667824 -.01114803  00000-0 -16487-1 0  9998,2 53136  53.2174 262.0286 0001522  42.3757  86.9641 15.57432443  1302,6773.228,92.46,396.124,394.062,0.0
53136.0,STARLINK-4152,PAYLOAD,2022-08-16 12:00:00,15.56025802,0.000151,53.2175,259.2085,51.6552,108.6673,-0.017328,-0.01111714,0.0,0 STARLINK-4152,1 53136U 22083E   22228.50001157 -.01111714  00000-0 -17328-1 0  9998,2 53136  53.2175 259.2085 0001510  51.6552 108.6673 15.56025802  5353,6777.309,92.543,400.198,398.151,0.0
53136.0,STARLINK-4152,PAYLOAD,2022-08-16 14:00:01,15.55827613,0.0001320999999999,53.2172,258.8055,54.5024,212.8612,-0.017511,-0.01114794,0.0,0 STARLINK-4152,1 53136U 22083E   22228.58334491 -.01114794  00000-0 -17511-1 0  9991,2 53136  53.2172 258.8055 0001321  54.5024 212.8612 15.55827613  1309,6777.885,92.555,400.645,398.855,0.0
53136.0,STARLINK-4152,PAYLOAD,2022-08-16 22:00:00,15.55023983,0.0001369,53.2172,257.194,40.6297,294.3014,-0.0180409999999999,-0.0111476,0.0,0 STARLINK-4152,1 53136U 22083E   22228.91667824 -.01114760  00000-0 -18041-1 0  9999,2 53136  53.2172 257.1940 0001369  40.6297 294.3014 15.55023983  1303,6780.22,92.603,403.013,401.157,0.0
53136.0,STARLINK-4152,PAYLOAD,2022-08-17 06:00:02,15.54223481,0.0001536,53.2175,255.5874,36.6864,4.9086,-0.018644,-0.01118158,0.0,0 STARLINK-4152,1 53136U 22083E   22229.25002315 -.01118158  00000-0 -18644-1 0  9999,2 53136  53.2175 255.5874 0001536  36.6864   4.9086 15.54223481  5464,6782.5480000000025,92.651,405.455,403.371,0.0
